{"type": "FeatureCollection", "features": [ {"type": "Feature", "properties": {"norad_id": 44476, "name": "INTELSAT 39 (IS-39)", "group": "intelsat", "lat": -0.041017352963562716, "lon": -108.8173364299724, "alt_km": 35786.757504250825, "timestamp": "2025-12-07T07:31:35.970891+00:00", "meta": {"OBJECT_NAME": "INTELSAT 39 (IS-39)", "OBJECT_ID": "2019-049B", "EPOCH": "2025-12-06T20:20:38.721696", "MEAN_MOTION": 1.00270607, "ECCENTRICITY": 5.291e-05, "INCLINATION": 0.0178, "RA_OF_ASC_NODE": 326.9296, "ARG_OF_PERICENTER": 184.8231, "MEAN_ANOMALY": 291.2367, "EPHEMERIS_TYPE": 0, "CLASSIFICATION_TYPE": "U", "NORAD_CAT_ID": 44476, "ELEMENT_SET_NO": 999, "REV_AT_EPOCH": 2320, "BSTAR": 0, "MEAN_MOTION_DOT": 3.9e-07, "MEAN_MOTION_DDOT": 0}, "tle": {"line1": "1 44476U 19049B   25340.84767039  .00000039  00000+0  00000+0 0  9996", "line2": "2 44476   0.0178 326.9296 0000529 184.8231 291.2367  1.00270607 23203"}}, "geometry": {"type": "Point", "coordinates": [-108.8173364299724, -0.041017352963562716]}}, {"type": "Feature", "properties": {"norad_id": 46114, "name": "GALAXY 30 (G-30)", "group": "intelsat", "lat": 0.0360582989707752, "lon": 64.231601667872, "alt_km": 35796.741995742035, "timestamp": "2025-12-07T07:31:35.970902+00:00", "meta": {"OBJECT_NAME": "GALAXY 30 (G-30)", "OBJECT_ID": "2020-056C", "EPOCH": "2025-12-06T16:29:46.461984", "MEAN_MOTION": 1.0027044, "ECCENTRICITY": 0.00024765, "INCLINATION": 0.0131, "RA_OF_ASC_NODE": 322.415, "ARG_OF_PERICENTER": 291.9013, "MEAN_ANOMALY": 303.8481, "EPHEMERIS_TYPE": 0, "CLASSIFICATION_TYPE": "U", "NORAD_CAT_ID": 46114, "ELEMENT_SET_NO": 999, "REV_AT_EPOCH": 1936, "BSTAR": 0, "MEAN_MOTION_DOT": 4.3e-07, "MEAN_MOTION_DDOT": 0}, "tle": {"line1": "1 46114U 20056C   25340.68734331  .00000043  00000+0  00000+0 0  9993", "line2": "2 46114   0.0131 322.4150 0002476 291.9013 303.8481  1.00270440 19368"}}, "geometry": {"type": "Point", "coordinates": [64.231601667872, 0.0360582989707752]}}, {"type": "Feature", "properties": {"norad_id": 54026, "name": "GALAXY 33 (G-33)", "group": "intelsat", "lat": 0.021516413086651254, "lon": 56.23378584825274, "alt_km": 35795.633966581576, "timestamp": "2025-12-07T07:31:35.970914+00:00", "meta": {"OBJECT_NAME": "GALAXY 33 (G-33)", "OBJECT_ID": "2022-128A", "EPOCH": "2025-12-06T16:27:24.188832", "MEAN_MOTION": 1.00270187, "ECCENTRICITY": 0.0002237, "INCLINATION": 0.0188, "RA_OF_ASC_NODE": 40.2361, "ARG_OF_PERICENTER": 210.7508, "MEAN_ANOMALY": 298.5841, "EPHEMERIS_TYPE": 0, "CLASSIFICATION_TYPE": "U", "NORAD_CAT_ID": 54026, "ELEMENT_SET_NO": 999, "REV_AT_EPOCH": 1181, "BSTAR": 0, "MEAN_MOTION_DOT": 8.5e-07, "MEAN_MOTION_DDOT": 0}, "tle": {"line1": "1 54026U 22128A   25340.68569663  .00000085  00000+0  00000+0 0  9996", "line2": "2 54026   0.0188  40.2361 0002237 210.7508 298.5841  1.00270187 11813"}}, "geometry": {"type": "Point", "coordinates": [56.23378584825274, 0.021516413086651254]}}, {"type": "Feature", "properties": {"norad_id": 54027, "name": "GALAXY 34 (G-34)", "group": "intelsat", "lat": 0.025479589921586242, "lon": 60.2402959802887, "alt_km": 35791.64207724377, "timestamp": "2025-12-07T07:31:35.970926+00:00", "meta": {"OBJECT_NAME": "GALAXY 34 (G-34)", "OBJECT_ID": "2022-128B", "EPOCH": "2025-12-06T14:45:50.764896", "MEAN_MOTION": 1.00271245, "ECCENTRICITY": 0.00012982, "INCLINATION": 0.0035, "RA_OF_ASC_NODE": 358.5566, "ARG_OF_PERICENTER": 247.7183, "MEAN_ANOMALY": 281.8466, "EPHEMERIS_TYPE": 0, "CLASSIFICATION_TYPE": "U", "NORAD_CAT_ID": 54027, "ELEMENT_SET_NO": 999, "REV_AT_EPOCH": 1198, "BSTAR": 0, "MEAN_MOTION_DOT": 6.5e-07, "MEAN_MOTION_DDOT": 0}, "tle": {"line1": "1 54027U 22128B   25340.61517089  .00000065  00000+0  00000+0 0  9993", "line2": "2 54027   0.0035 358.5566 0001298 247.7183 281.8466  1.00271245 11984"}}, "geometry": {"type": "Point", "coordinates": [60.2402959802887, 0.025479589921586242]}}, {"type": "Feature", "properties": {"norad_id": 54243, "name": "GALAXY 31 (G-31)", "group": "intelsat", "lat": 0.014277163430702297, "lon": 68.2387381865572, "alt_km": 35794.17252811098, "timestamp": "2025-12-07T07:31:35.970938+00:00", "meta": {"OBJECT_NAME": "GALAXY 31 (G-31)", "OBJECT_ID": "2022-153A", "EPOCH": "2025-12-06T16:30:53.853984", "MEAN_MOTION": 1.00270911, "ECCENTRICITY": 0.00019629, "INCLINATION": 0.0136, "RA_OF_ASC_NODE": 63.5273, "ARG_OF_PERICENTER": 203.3363, "MEAN_ANOMALY": 295.5862, "EPHEMERIS_TYPE": 0, "CLASSIFICATION_TYPE": "U", "NORAD_CAT_ID": 54243, "ELEMENT_SET_NO": 999, "REV_AT_EPOCH": 520, "BSTAR": 0, "MEAN_MOTION_DOT": 2e-07, "MEAN_MOTION_DDOT": 0}, "tle": {"line1": "1 54243U 22153A   25340.68812331  .00000020  00000+0  00000+0 0  9997", "line2": "2 54243   0.0136  63.5273 0001962 203.3363 295.5862  1.00270911  5209"}}, "geometry": {"type": "Point", "coordinates": [68.2387381865572, 0.014277163430702297]}}, {"type": "Feature", "properties": {"norad_id": 54244, "name": "GALAXY 32 (G-32)", "group": "intelsat", "lat": 0.03214702068340278, "lon": 98.24478286639744, "alt_km": 35796.48352156852, "timestamp": "2025-12-07T07:31:35.970956+00:00", "meta": {"OBJECT_NAME": "GALAXY 32 (G-32)", "OBJECT_ID": "2022-153B", "EPOCH": "2025-12-06T14:56:42.226080", "MEAN_MOTION": 1.00270597, "ECCENTRICITY": 0.00026688, "INCLINATION": 0.0124, "RA_OF_ASC_NODE": 15.9632, "ARG_OF_PERICENTER": 289.3269, "MEAN_ANOMALY": 263.5475, "EPHEMERIS_TYPE": 0, "CLASSIFICATION_TYPE": "U", "NORAD_CAT_ID": 54244, "ELEMENT_SET_NO": 999, "REV_AT_EPOCH": 1121, "BSTAR": 0, "MEAN_MOTION_DOT": -1.68e-06, "MEAN_MOTION_DDOT": 0}, "tle": {"line1": "1 54244U 22153B   25340.62271095 -.00000168  00000+0  00000+0 0  9992", "line2": "2 54244   0.0124  15.9632 0002668 289.3269 263.5475  1.00270597 11213"}}, "geometry": {"type": "Point", "coordinates": [98.24478286639744, 0.03214702068340278]}}, {"type": "Feature", "properties": {"norad_id": 54741, "name": "GALAXY 35 (G-35)", "group": "intelsat", "lat": 0.014879579440416997, "lon": 96.13505518447451, "alt_km": 35797.435935676716, "timestamp": "2025-12-07T07:31:35.970968+00:00", "meta": {"OBJECT_NAME": "GALAXY 35 (G-35)", "OBJECT_ID": "2022-170A", "EPOCH": "2025-12-06T21:47:02.534208", "MEAN_MOTION": 1.00271204, "ECCENTRICITY": 0.00027083, "INCLINATION": 0.0144, "RA_OF_ASC_NODE": 68.8459, "ARG_OF_PERICENTER": 194.1811, "MEAN_ANOMALY": 46.5851, "EPHEMERIS_TYPE": 0, "CLASSIFICATION_TYPE": "U", "NORAD_CAT_ID": 54741, "ELEMENT_SET_NO": 999, "REV_AT_EPOCH": 1096, "BSTAR": 0, "MEAN_MOTION_DOT": -1.57e-06, "MEAN_MOTION_DDOT": 0}, "tle": {"line1": "1 54741U 22170A   25340.90766822 -.00000157  00000+0  00000+0 0  9999", "line2": "2 54741   0.0144  68.8459 0002708 194.1811  46.5851  1.00271204 10966"}}, "geometry": {"type": "Point", "coordinates": [96.13505518447451, 0.014879579440416997]}}, {"type": "Feature", "properties": {"norad_id": 54742, "name": "GALAXY 36 (G-36)", "group": "intelsat", "lat": 0.03142116650053776, "lon": 100.21738575095638, "alt_km": 35789.36169786479, "timestamp": "2025-12-07T07:31:35.970980+00:00", "meta": {"OBJECT_NAME": "GALAXY 36 (G-36)", "OBJECT_ID": "2022-170B", "EPOCH": "2025-12-06T21:48:09.926208", "MEAN_MOTION": 1.00269423, "ECCENTRICITY": 6.185e-05, "INCLINATION": 0.0117, "RA_OF_ASC_NODE": 341.9552, "ARG_OF_PERICENTER": 291.2611, "MEAN_ANOMALY": 40.7562, "EPHEMERIS_TYPE": 0, "CLASSIFICATION_TYPE": "U", "NORAD_CAT_ID": 54742, "ELEMENT_SET_NO": 999, "REV_AT_EPOCH": 1084, "BSTAR": 0, "MEAN_MOTION_DOT": 0, "MEAN_MOTION_DDOT": 0}, "tle": {"line1": "1 54742U 22170B   25340.90844822  .00000000  00000+0  00000+0 0  9993", "line2": "2 54742   0.0117 341.9552 0000618 291.2611  40.7562  1.00269423 10843"}}, "geometry": {"type": "Point", "coordinates": [100.21738575095638, 0.03142116650053776]}}, {"type": "Feature", "properties": {"norad_id": 57493, "name": "GALAXY 37 (G-37)", "group": "intelsat", "lat": 0.03654293799965388, "lon": 62.24133773669243, "alt_km": 35796.05533921557, "timestamp": "2025-12-07T07:31:35.970991+00:00", "meta": {"OBJECT_NAME": "GALAXY 37 (G-37)", "OBJECT_ID": "2023-112A", "EPOCH": "2025-12-06T21:37:10.979328", "MEAN_MOTION": 1.00270596, "ECCENTRICITY": 0.00024005, "INCLINATION": 0.0123, "RA_OF_ASC_NODE": 341.544, "ARG_OF_PERICENTER": 278.6945, "MEAN_ANOMALY": 12.9936, "EPHEMERIS_TYPE": 0, "CLASSIFICATION_TYPE": "U", "NORAD_CAT_ID": 57493, "ELEMENT_SET_NO": 999, "REV_AT_EPOCH": 861, "BSTAR": 0, "MEAN_MOTION_DOT": 5.4e-07, "MEAN_MOTION_DDOT": 0}, "tle": {"line1": "1 57493U 23112A   25340.90082152  .00000054  00000+0  00000+0 0  9995", "line2": "2 57493   0.0123 341.5440 0002400 278.6945  12.9936  1.00270596  8619"}}, "geometry": {"type": "Point", "coordinates": [62.24133773669243, 0.03654293799965388]}}]}